[{"OBJECT_NAME":"UNKNOWN","OBJECT_ID":"","EPOCH":"2026-03-05T05:04:48.591264","MEAN_MOTION":14.37616275,"ECCENTRICITY":0.0206242,"INCLINATION":98.0233,"RA_OF_ASC_NODE":158.22,"ARG_OF_PERICENTER":238.7533,"MEAN_ANOMALY":119.3307,"EPHEMERIS_TYPE":0,"CLASSIFICATION_TYPE":"U","NORAD_CAT_ID":85217,"ELEMENT_SET_NO":999,"REV_AT_EPOCH":63970,"BSTAR":0.0010211,"MEAN_MOTION_DOT":3.873e-5,"MEAN_MOTION_DDOT":0},{"OBJECT_NAME":"UNKNOWN","OBJECT_ID":"","EPOCH":"2026-02-23T08:31:05.057760","MEAN_MOTION":14.01835433,"ECCENTRICITY":0.0516167,"INCLINATION":65.5338,"RA_OF_ASC_NODE":24.2147,"ARG_OF_PERICENTER":354.4749,"MEAN_ANOMALY":5.0755,"EPHEMERIS_TYPE":0,"CLASSIFICATION_TYPE":"U","NORAD_CAT_ID":85237,"ELEMENT_SET_NO":999,"REV_AT_EPOCH":61852,"BSTAR":0.0026977,"MEAN_MOTION_DOT":0.00013478,"MEAN_MOTION_DDOT":0},{"OBJECT_NAME":"UNKNOWN","OBJECT_ID":"","EPOCH":"2026-03-04T18:22:54.171264","MEAN_MOTION":13.88359787,"ECCENTRICITY":0.0063087,"INCLINATION":99.0683,"RA_OF_ASC_NODE":355.627,"ARG_OF_PERICENTER":339.796,"MEAN_ANOMALY":49.2011,"EPHEMERIS_TYPE":0,"CLASSIFICATION_TYPE":"U","NORAD_CAT_ID":85238,"ELEMENT_SET_NO":999,"REV_AT_EPOCH":62222,"BSTAR":9.844e-5,"MEAN_MOTION_DOT":7.6e-7,"MEAN_MOTION_DDOT":0},{"OBJECT_NAME":"UNKNOWN","OBJECT_ID":"","EPOCH":"2026-03-05T11:06:20.320416","MEAN_MOTION":14.21767755,"ECCENTRICITY":0.0223808,"INCLINATION":97.9906,"RA_OF_ASC_NODE":65.2169,"ARG_OF_PERICENTER":60.1179,"MEAN_ANOMALY":302.2033,"EPHEMERIS_TYPE":0,"CLASSIFICATION_TYPE":"U","NORAD_CAT_ID":85246,"ELEMENT_SET_NO":999,"REV_AT_EPOCH":63482,"BSTAR":0.00091026,"MEAN_MOTION_DOT":2.545e-5,"MEAN_MOTION_DDOT":0},{"OBJECT_NAME":"UNKNOWN","OBJECT_ID":"","EPOCH":"2026-03-05T08:54:13.079808","MEAN_MOTION":14.00408499,"ECCENTRICITY":0.0050304,"INCLINATION":100.4235,"RA_OF_ASC_NODE":116.9063,"ARG_OF_PERICENTER":22.1053,"MEAN_ANOMALY":40.2527,"EPHEMERIS_TYPE":0,"CLASSIFICATION_TYPE":"U","NORAD_CAT_ID":85373,"ELEMENT_SET_NO":999,"REV_AT_EPOCH":62369,"BSTAR":0.0018686,"MEAN_MOTION_DOT":2.745e-5,"MEAN_MOTION_DDOT":0},{"OBJECT_NAME":"UNKNOWN","OBJECT_ID":"","EPOCH":"2026-03-04T10:00:31.556160","MEAN_MOTION":13.52313145,"ECCENTRICITY":0.0053477,"INCLINATION":100.4831,"RA_OF_ASC_NODE":37.2361,"ARG_OF_PERICENTER":38.8617,"MEAN_ANOMALY":112.39,"EPHEMERIS_TYPE":0,"CLASSIFICATION_TYPE":"U","NORAD_CAT_ID":87014,"ELEMENT_SET_NO":999,"REV_AT_EPOCH":60195,"BSTAR":0.0052111,"MEAN_MOTION_DOT":3.422e-5,"MEAN_MOTION_DDOT":0},{"OBJECT_NAME":"UNKNOWN","OBJECT_ID":"","EPOCH":"2026-03-03T21:05:30.884352","MEAN_MOTION":14.04698837,"ECCENTRICITY":0.0081356,"INCLINATION":98.7477,"RA_OF_ASC_NODE":100.246,"ARG_OF_PERICENTER":23.6181,"MEAN_ANOMALY":336.8689,"EPHEMERIS_TYPE":0,"CLASSIFICATION_TYPE":"U","NORAD_CAT_ID":87029,"ELEMENT_SET_NO":999,"REV_AT_EPOCH":60439,"BSTAR":0.00092545,"MEAN_MOTION_DOT":1.484e-5,"MEAN_MOTION_DDOT":0},{"OBJECT_NAME":"UNKNOWN","OBJECT_ID":"","EPOCH":"2026-03-04T14:08:53.510208","MEAN_MOTION":14.07267279,"ECCENTRICITY":0.0043038,"INCLINATION":98.7038,"RA_OF_ASC_NODE":108.8276,"ARG_OF_PERICENTER":222.572,"MEAN_ANOMALY":137.211,"EPHEMERIS_TYPE":0,"CLASSIFICATION_TYPE":"U","NORAD_CAT_ID":87042,"ELEMENT_SET_NO":999,"REV_AT_EPOCH":56547,"BSTAR":0.00047496,"MEAN_MOTION_DOT":7.61e-6,"MEAN_MOTION_DDOT":0},{"OBJECT_NAME":"UNKNOWN","OBJECT_ID":"","EPOCH":"2026-03-02T14:58:09.963552","MEAN_MOTION":13.46233684,"ECCENTRICITY":0.0708861,"INCLINATION":65.7278,"RA_OF_ASC_NODE":63.853,"ARG_OF_PERICENTER":104.7326,"MEAN_ANOMALY":263.3326,"EPHEMERIS_TYPE":0,"CLASSIFICATION_TYPE":"U","NORAD_CAT_ID":87051,"ELEMENT_SET_NO":999,"REV_AT_EPOCH":59933,"BSTAR":0.00051733,"MEAN_MOTION_DOT":1.408e-5,"MEAN_MOTION_DDOT":0},{"OBJECT_NAME":"UNKNOWN","OBJECT_ID":"","EPOCH":"2026-03-05T11:08:08.016288","MEAN_MOTION":14.11453652,"ECCENTRICITY":0.00132,"INCLINATION":100.0898,"RA_OF_ASC_NODE":319.0489,"ARG_OF_PERICENTER":114.877,"MEAN_ANOMALY":245.377,"EPHEMERIS_TYPE":0,"CLASSIFICATION_TYPE":"U","NORAD_CAT_ID":87054,"ELEMENT_SET_NO":999,"REV_AT_EPOCH":62799,"BSTAR":0.0013022,"MEAN_MOTION_DOT":2.308e-5,"MEAN_MOTION_DDOT":0},{"OBJECT_NAME":"UNKNOWN","OBJECT_ID":"","EPOCH":"2026-03-05T06:14:13.324416","MEAN_MOTION":13.86600827,"ECCENTRICITY":0.0472426,"INCLINATION":61.2234,"RA_OF_ASC_NODE":26.4076,"ARG_OF_PERICENTER":279.1522,"MEAN_ANOMALY":75.6365,"EPHEMERIS_TYPE":0,"CLASSIFICATION_TYPE":"U","NORAD_CAT_ID":87071,"ELEMENT_SET_NO":999,"REV_AT_EPOCH":61392,"BSTAR":0.0024266,"MEAN_MOTION_DOT":6.748e-5,"MEAN_MOTION_DDOT":0},{"OBJECT_NAME":"UNKNOWN","OBJECT_ID":"","EPOCH":"2026-03-05T04:38:00.510144","MEAN_MOTION":12.42855547,"ECCENTRICITY":0.0030796,"INCLINATION":102.2549,"RA_OF_ASC_NODE":161.1346,"ARG_OF_PERICENTER":282.9697,"MEAN_ANOMALY":76.7929,"EPHEMERIS_TYPE":0,"CLASSIFICATION_TYPE":"U","NORAD_CAT_ID":87129,"ELEMENT_SET_NO":999,"REV_AT_EPOCH":55691,"BSTAR":0.0018997,"MEAN_MOTION_DOT":2.17e-6,"MEAN_MOTION_DDOT":0},{"OBJECT_NAME":"UNKNOWN","OBJECT_ID":"","EPOCH":"2026-03-03T18:37:44.791104","MEAN_MOTION":13.66299392,"ECCENTRICITY":0.0105038,"INCLINATION":90.3452,"RA_OF_ASC_NODE":72.3182,"ARG_OF_PERICENTER":18.1261,"MEAN_ANOMALY":342.3599,"EPHEMERIS_TYPE":0,"CLASSIFICATION_TYPE":"U","NORAD_CAT_ID":87159,"ELEMENT_SET_NO":999,"REV_AT_EPOCH":56775,"BSTAR":0.0018699,"MEAN_MOTION_DOT":1.613e-5,"MEAN_MOTION_DDOT":0},{"OBJECT_NAME":"UNKNOWN","OBJECT_ID":"","EPOCH":"2026-03-05T08:01:46.740864","MEAN_MOTION":13.64423275,"ECCENTRICITY":0.0645757,"INCLINATION":65.6016,"RA_OF_ASC_NODE":32.5043,"ARG_OF_PERICENTER":27.6427,"MEAN_ANOMALY":335.7442,"EPHEMERIS_TYPE":0,"CLASSIFICATION_TYPE":"U","NORAD_CAT_ID":87163,"ELEMENT_SET_NO":999,"REV_AT_EPOCH":58878,"BSTAR":0.002345,"MEAN_MOTION_DOT":8.017e-5,"MEAN_MOTION_DDOT":0},{"OBJECT_NAME":"UNKNOWN","OBJECT_ID":"","EPOCH":"2026-03-04T16:25:31.511136","MEAN_MOTION":14.59242263,"ECCENTRICITY":0.0105545,"INCLINATION":65.201,"RA_OF_ASC_NODE":89.5469,"ARG_OF_PERICENTER":16.2664,"MEAN_ANOMALY":344.178,"EPHEMERIS_TYPE":0,"CLASSIFICATION_TYPE":"U","NORAD_CAT_ID":87164,"ELEMENT_SET_NO":999,"REV_AT_EPOCH":64772,"BSTAR":0.0012624,"MEAN_MOTION_DOT":6.338e-5,"MEAN_MOTION_DDOT":0},{"OBJECT_NAME":"UNKNOWN","OBJECT_ID":"","EPOCH":"2026-03-05T13:56:44.733984","MEAN_MOTION":14.29785767,"ECCENTRICITY":0.0046438,"INCLINATION":98.5325,"RA_OF_ASC_NODE":288.7453,"ARG_OF_PERICENTER":80.2116,"MEAN_ANOMALY":280.4306,"EPHEMERIS_TYPE":0,"CLASSIFICATION_TYPE":"U","NORAD_CAT_ID":87204,"ELEMENT_SET_NO":999,"REV_AT_EPOCH":63727,"BSTAR":0.0010969,"MEAN_MOTION_DOT":2.809e-5,"MEAN_MOTION_DDOT":0},{"OBJECT_NAME":"UNKNOWN","OBJECT_ID":"","EPOCH":"2026-02-24T19:39:16.252704","MEAN_MOTION":14.47142657,"ECCENTRICITY":0.005159,"INCLINATION":99.0886,"RA_OF_ASC_NODE":65.9782,"ARG_OF_PERICENTER":299.6495,"MEAN_ANOMALY":186.2543,"EPHEMERIS_TYPE":0,"CLASSIFICATION_TYPE":"U","NORAD_CAT_ID":87211,"ELEMENT_SET_NO":999,"REV_AT_EPOCH":71848,"BSTAR":0.00093562,"MEAN_MOTION_DOT":3.419e-5,"MEAN_MOTION_DDOT":0}]
