UNKNOWN                 
1 85217U          26064.21167351  .00003873  00000+0  10211-2 0  9994
2 85217  98.0233 158.2200 0206242 238.7533 119.3307 14.37616275639706
UNKNOWN                 
1 85237U          26054.35491965  .00013478  00000+0  26977-2 0  9999
2 85237  65.5338  24.2147 0516167 354.4749   5.0755 14.01835433618525
UNKNOWN                 
1 85238U          26063.76590476  .00000076  00000+0  98440-4 0  9998
2 85238  99.0683 355.6270 0063087 339.7960  49.2011 13.88359787622222
UNKNOWN                 
1 85246U          26064.46273519  .00002545  00000+0  91026-3 0  9996
2 85246  97.9906  65.2169 0223808  60.1179 302.2033 14.21767755634824
UNKNOWN                 
1 85373U          26064.37098472  .00002745  00000+0  18686-2 0  9992
2 85373 100.4235 116.9063 0050304  22.1053  40.2527 14.00408499623699
UNKNOWN                 
1 87014U          26063.41703190  .00003422  00000+0  52111-2 0  9994
2 87014 100.4831  37.2361 0053477  38.8617 112.3900 13.52313145601955
UNKNOWN                 
1 87029U          26062.87882968  .00001484  00000+0  92545-3 0  9992
2 87029  98.7477 100.2460 0081356  23.6181 336.8689 14.04698837604392
UNKNOWN                 
1 87042U          26063.58950822  .00000761  00000+0  47496-3 0  9993
2 87042  98.7038 108.8276 0043038 222.5720 137.2110 14.07267279565475
UNKNOWN                 
1 87051U          26061.62372643  .00001408  00000+0  51733-3 0  9993
2 87051  65.7278  63.8530 0708861 104.7326 263.3326 13.46233684599330
UNKNOWN                 
1 87054U          26064.46398167  .00002308  00000+0  13022-2 0  9998
2 87054 100.0898 319.0489 0013200 114.8770 245.3770 14.11453652627993
UNKNOWN                 
1 87071U          26064.25987644  .00006748  00000+0  24266-2 0  9992
2 87071  61.2234  26.4076 0472426 279.1522  75.6365 13.86600827613925
UNKNOWN                 
1 87129U          26064.19306146  .00000217  00000+0  18997-2 0  9990
2 87129 102.2549 161.1346 0030796 282.9697  76.7929 12.42855547556911
UNKNOWN                 
1 87159U          26062.77621286  .00001613  00000+0  18699-2 0  9990
2 87159  90.3452  72.3182 0105038  18.1261 342.3599 13.66299392567759
UNKNOWN                 
1 87163U          26064.33456876  .00008017  00000+0  23450-2 0  9996
2 87163  65.6016  32.5043 0645757  27.6427 335.7442 13.64423275588781
UNKNOWN                 
1 87164U          26063.68439249  .00006338  00000+0  12624-2 0  9994
2 87164  65.2010  89.5469 0105545  16.2664 344.1780 14.59242263647729
UNKNOWN                 
1 87204U          26064.58107331  .00002809  00000+0  10969-2 0  9992
2 87204  98.5325 288.7453 0046438  80.2116 280.4306 14.29785767637279
UNKNOWN                 
1 87211U          26055.81893811  .00003419  00000+0  93562-3 0  9990
2 87211  99.0886  65.9782 0051590 299.6495 186.2543 14.47142657718480
